[{"OBJECT_NAME":"STARLINK-4185","OBJECT_ID":"2022-083H","EPOCH":"2026-03-09T12:39:32.085216","MEAN_MOTION":15.08850981,"ECCENTRICITY":0.00014531,"INCLINATION":53.2179,"RA_OF_ASC_NODE":174.8496,"ARG_OF_PERICENTER":82.2429,"MEAN_ANOMALY":277.8728,"EPHEMERIS_TYPE":0,"CLASSIFICATION_TYPE":"U","NORAD_CAT_ID":53139,"ELEMENT_SET_NO":999,"REV_AT_EPOCH":20119,"BSTAR":7.9491771e-5,"MEAN_MOTION_DOT":9.78e-6,"MEAN_MOTION_DDOT":0},{"OBJECT_NAME":"AISAT","OBJECT_ID":"2014-034B","EPOCH":"2026-03-09T16:29:04.722144","MEAN_MOTION":15.06703825,"ECCENTRICITY":0.00089151,"INCLINATION":98.2441,"RA_OF_ASC_NODE":333.9816,"ARG_OF_PERICENTER":189.0234,"MEAN_ANOMALY":171.0832,"EPHEMERIS_TYPE":0,"CLASSIFICATION_TYPE":"U","NORAD_CAT_ID":40054,"ELEMENT_SET_NO":999,"REV_AT_EPOCH":63221,"BSTAR":0.00094770343,"MEAN_MOTION_DOT":0.00014038,"MEAN_MOTION_DDOT":0}]
